[
  {
    "OBJECT_NAME": "STARLINK-31471",
    "OBJECT_ID": "24076E",
    "EPOCH": "2025-11-11T01:47:07.220832",
    "MEAN_MOTION": 15.27616376,
    "ECCENTRICITY": 0.000141,
    "INCLINATION": 43.007,
    "RA_OF_ASC_NODE": 318.7376,
    "ARG_OF_PERICENTER": 259.9548,
    "MEAN_ANOMALY": 100.1145,
    "EPHEMERIS_TYPE": 0,
    "CLASSIFICATION_TYPE": "U",
    "NORAD_CAT_ID": 59568,
    "ELEMENT_SET_NO": 999,
    "REV_AT_EPOCH": 8827,
    "BSTAR": 0.0,
    "MEAN_MOTION_DOT": -9.825e-05,
    "MEAN_MOTION_DDOT": 0.0,
    "TLE_LINE1": "1 59568U 24076E   25315.07438913 -.00009825  00000+0 -34758-3 0  9998",
    "TLE_LINE2": "2 59568  43.0070 318.7376 0001410 259.9548 100.1145 15.27616376 88273",
    "COMMENT": "Grouped by shell and plane from TLE"
  },
  {
    "OBJECT_NAME": "STARLINK-31470",
    "OBJECT_ID": "24076F",
    "EPOCH": "2025-11-11T06:50:38.169600",
    "MEAN_MOTION": 15.27593427,
    "ECCENTRICITY": 8e-05,
    "INCLINATION": 43.0016,
    "RA_OF_ASC_NODE": 314.2852,
    "ARG_OF_PERICENTER": 284.3293,
    "MEAN_ANOMALY": 75.747,
    "EPHEMERIS_TYPE": 0,
    "CLASSIFICATION_TYPE": "U",
    "NORAD_CAT_ID": 59569,
    "ELEMENT_SET_NO": 999,
    "REV_AT_EPOCH": 8834,
    "BSTAR": 0.00030974,
    "MEAN_MOTION_DOT": 8.274e-05,
    "MEAN_MOTION_DDOT": 0.0,
    "TLE_LINE1": "1 59569U 24076F   25315.28516400  .00008274  00000+0  30974-3 0  9991",
    "TLE_LINE2": "2 59569  43.0016 314.2852 0000800 284.3293  75.7470 15.27593427 88342",
    "COMMENT": "Grouped by shell and plane from TLE"
  },
  {
    "OBJECT_NAME": "STARLINK-31587",
    "OBJECT_ID": "24076G",
    "EPOCH": "2025-11-11T07:02:54.088512",
    "MEAN_MOTION": 15.27579773,
    "ECCENTRICITY": 0.0001297,
    "INCLINATION": 43.0013,
    "RA_OF_ASC_NODE": 317.8042,
    "ARG_OF_PERICENTER": 275.5956,
    "MEAN_ANOMALY": 84.4748,
    "EPHEMERIS_TYPE": 0,
    "CLASSIFICATION_TYPE": "U",
    "NORAD_CAT_ID": 59570,
    "ELEMENT_SET_NO": 999,
    "REV_AT_EPOCH": 8841,
    "BSTAR": 0.00012231,
    "MEAN_MOTION_DOT": 3.105e-05,
    "MEAN_MOTION_DDOT": 0.0,
    "TLE_LINE1": "1 59570U 24076G   25315.29368158  .00003105  00000+0  12231-3 0  9993",
    "TLE_LINE2": "2 59570  43.0013 317.8042 0001297 275.5956  84.4748 15.27579773 88411",
    "COMMENT": "Grouped by shell and plane from TLE"
  },
  {
    "OBJECT_NAME": "STARLINK-31606",
    "OBJECT_ID": "24076H",
    "EPOCH": "2025-11-11T08:00:03.000384",
    "MEAN_MOTION": 15.27522333,
    "ECCENTRICITY": 0.0001058,
    "INCLINATION": 43.0023,
    "RA_OF_ASC_NODE": 317.0056,
    "ARG_OF_PERICENTER": 266.5788,
    "MEAN_ANOMALY": 192.5877,
    "EPHEMERIS_TYPE": 0,
    "CLASSIFICATION_TYPE": "U",
    "NORAD_CAT_ID": 59571,
    "ELEMENT_SET_NO": 999,
    "REV_AT_EPOCH": 578,
    "BSTAR": 0.0013854,
    "MEAN_MOTION_DOT": 0.00037991,
    "MEAN_MOTION_DDOT": 0.0,
    "TLE_LINE1": "1 59571U 24076H   25315.33336806  .00037991  00000+0  13854-2 0  9995",
    "TLE_LINE2": "2 59571  43.0023 317.0056 0001058 266.5788 192.5877 15.27522333  5781",
    "COMMENT": "Grouped by shell and plane from TLE"
  },
  {
    "OBJECT_NAME": "STARLINK-31666",
    "OBJECT_ID": "24076J",
    "EPOCH": "2025-11-11T01:59:36.752064",
    "MEAN_MOTION": 15.27578981,
    "ECCENTRICITY": 0.0001359,
    "INCLINATION": 43.0025,
    "RA_OF_ASC_NODE": 311.8552,
    "ARG_OF_PERICENTER": 259.9755,
    "MEAN_ANOMALY": 100.0943,
    "EPHEMERIS_TYPE": 0,
    "CLASSIFICATION_TYPE": "U",
    "NORAD_CAT_ID": 59572,
    "ELEMENT_SET_NO": 999,
    "REV_AT_EPOCH": 8844,
    "BSTAR": 6.6058e-05,
    "MEAN_MOTION_DOT": 1.556e-05,
    "MEAN_MOTION_DDOT": 0.0,
    "TLE_LINE1": "1 59572U 24076J   25315.08306426  .00001556  00000+0  66058-4 0  9997",
    "TLE_LINE2": "2 59572  43.0025 311.8552 0001359 259.9755 100.0943 15.27578981 88443",
    "COMMENT": "Grouped by shell and plane from TLE"
  },
  {
    "OBJECT_NAME": "STARLINK-31683",
    "OBJECT_ID": "24076K",
    "EPOCH": "2025-11-11T01:48:59.145984",
    "MEAN_MOTION": 15.27576657,
    "ECCENTRICITY": 0.0001492,
    "INCLINATION": 43.0025,
    "RA_OF_ASC_NODE": 318.7477,
    "ARG_OF_PERICENTER": 276.6931,
    "MEAN_ANOMALY": 83.3751,
    "EPHEMERIS_TYPE": 0,
    "CLASSIFICATION_TYPE": "U",
    "NORAD_CAT_ID": 59573,
    "ELEMENT_SET_NO": 999,
    "REV_AT_EPOCH": 8836,
    "BSTAR": 0.00028066999999999995,
    "MEAN_MOTION_DOT": 7.468e-05,
    "MEAN_MOTION_DDOT": 0.0,
    "TLE_LINE1": "1 59573U 24076K   25315.07568456  .00007468  00000+0  28067-3 0  9995",
    "TLE_LINE2": "2 59573  43.0025 318.7477 0001492 276.6931  83.3751 15.27576657 88365",
    "COMMENT": "Grouped by shell and plane from TLE"
  },
  {
    "OBJECT_NAME": "STARLINK-31751",
    "OBJECT_ID": "24076L",
    "EPOCH": "2025-11-11T01:02:56.548320",
    "MEAN_MOTION": 15.27585388,
    "ECCENTRICITY": 7.99e-05,
    "INCLINATION": 43.0017,
    "RA_OF_ASC_NODE": 319.3811,
    "ARG_OF_PERICENTER": 277.5274,
    "MEAN_ANOMALY": 82.5487,
    "EPHEMERIS_TYPE": 0,
    "CLASSIFICATION_TYPE": "U",
    "NORAD_CAT_ID": 59574,
    "ELEMENT_SET_NO": 999,
    "REV_AT_EPOCH": 8835,
    "BSTAR": 0.00048307,
    "MEAN_MOTION_DOT": 0.00013057,
    "MEAN_MOTION_DDOT": 0.0,
    "TLE_LINE1": "1 59574U 24076L   25315.04371005  .00013057  00000+0  48307-3 0  9995",
    "TLE_LINE2": "2 59574  43.0017 319.3811 0000799 277.5274  82.5487 15.27585388 88352",
    "COMMENT": "Grouped by shell and plane from TLE"
  },
  {
    "OBJECT_NAME": "STARLINK-31510",
    "OBJECT_ID": "24076M",
    "EPOCH": "2025-11-11T06:54:19.919520",
    "MEAN_MOTION": 15.27597714,
    "ECCENTRICITY": 0.0001447,
    "INCLINATION": 43.0031,
    "RA_OF_ASC_NODE": 314.3084,
    "ARG_OF_PERICENTER": 277.6595,
    "MEAN_ANOMALY": 82.4093,
    "EPHEMERIS_TYPE": 0,
    "CLASSIFICATION_TYPE": "U",
    "NORAD_CAT_ID": 59575,
    "ELEMENT_SET_NO": 999,
    "REV_AT_EPOCH": 8843,
    "BSTAR": 0.00013779,
    "MEAN_MOTION_DOT": 3.533e-05,
    "MEAN_MOTION_DDOT": 0.0,
    "TLE_LINE1": "1 59575U 24076M   25315.28773055  .00003533  00000+0  13779-3 0  9996",
    "TLE_LINE2": "2 59575  43.0031 314.3084 0001447 277.6595  82.4093 15.27597714 88431",
    "COMMENT": "Grouped by shell and plane from TLE"
  },
  {
    "OBJECT_NAME": "STARLINK-31663",
    "OBJECT_ID": "24076N",
    "EPOCH": "2025-11-11T00:57:23.096160",
    "MEAN_MOTION": 15.27579693,
    "ECCENTRICITY": 7.63e-05,
    "INCLINATION": 42.9979,
    "RA_OF_ASC_NODE": 319.3355,
    "ARG_OF_PERICENTER": 257.6436,
    "MEAN_ANOMALY": 102.433,
    "EPHEMERIS_TYPE": 0,
    "CLASSIFICATION_TYPE": "U",
    "NORAD_CAT_ID": 59576,
    "ELEMENT_SET_NO": 999,
    "REV_AT_EPOCH": 8835,
    "BSTAR": 0.00019798,
    "MEAN_MOTION_DOT": 5.19e-05,
    "MEAN_MOTION_DDOT": 0.0,
    "TLE_LINE1": "1 59576U 24076N   25315.03985065  .00005190  00000+0  19798-3 0  9994",
    "TLE_LINE2": "2 59576  42.9979 319.3355 0000763 257.6436 102.4330 15.27579693 88353",
    "COMMENT": "Grouped by shell and plane from TLE"
  },
  {
    "OBJECT_NAME": "STARLINK-31692",
    "OBJECT_ID": "24076P",
    "EPOCH": "2025-11-11T06:55:29.820576",
    "MEAN_MOTION": 15.27579587,
    "ECCENTRICITY": 0.0001484,
    "INCLINATION": 43.0014,
    "RA_OF_ASC_NODE": 317.7341,
    "ARG_OF_PERICENTER": 285.2387,
    "MEAN_ANOMALY": 74.8301,
    "EPHEMERIS_TYPE": 0,
    "CLASSIFICATION_TYPE": "U",
    "NORAD_CAT_ID": 59577,
    "ELEMENT_SET_NO": 999,
    "REV_AT_EPOCH": 8839,
    "BSTAR": 0.00049914,
    "MEAN_MOTION_DOT": 0.00013498,
    "MEAN_MOTION_DDOT": 0.0,
    "TLE_LINE1": "1 59577U 24076P   25315.28853959  .00013498  00000+0  49914-3 0  9991",
    "TLE_LINE2": "2 59577  43.0014 317.7341 0001484 285.2387  74.8301 15.27579587 88392",
    "COMMENT": "Grouped by shell and plane from TLE"
  },
  {
    "OBJECT_NAME": "STARLINK-31685",
    "OBJECT_ID": "24076Q",
    "EPOCH": "2025-11-11T07:39:41.186880",
    "MEAN_MOTION": 15.27595264,
    "ECCENTRICITY": 0.0001347,
    "INCLINATION": 43.0033,
    "RA_OF_ASC_NODE": 317.1245,
    "ARG_OF_PERICENTER": 271.637,
    "MEAN_ANOMALY": 88.4327,
    "EPHEMERIS_TYPE": 0,
    "CLASSIFICATION_TYPE": "U",
    "NORAD_CAT_ID": 59578,
    "ELEMENT_SET_NO": 999,
    "REV_AT_EPOCH": 8840,
    "BSTAR": 0.00020538999999999998,
    "MEAN_MOTION_DOT": 5.396e-05,
    "MEAN_MOTION_DDOT": 0.0,
    "TLE_LINE1": "1 59578U 24076Q   25315.31922670  .00005396  00000+0  20539-3 0  9993",
    "TLE_LINE2": "2 59578  43.0033 317.1245 0001347 271.6370  88.4327 15.27595264 88401",
    "COMMENT": "Grouped by shell and plane from TLE"
  },
  {
    "OBJECT_NAME": "STARLINK-31686",
    "OBJECT_ID": "24076R",
    "EPOCH": "2025-11-11T01:28:37.626240",
    "MEAN_MOTION": 15.27571475,
    "ECCENTRICITY": 6.16e-05,
    "INCLINATION": 43.0043,
    "RA_OF_ASC_NODE": 318.6352,
    "ARG_OF_PERICENTER": 278.0069,
    "MEAN_ANOMALY": 82.0713,
    "EPHEMERIS_TYPE": 0,
    "CLASSIFICATION_TYPE": "U",
    "NORAD_CAT_ID": 59579,
    "ELEMENT_SET_NO": 999,
    "REV_AT_EPOCH": 8836,
    "BSTAR": 7.0366e-05,
    "MEAN_MOTION_DOT": 1.674e-05,
    "MEAN_MOTION_DDOT": 0.0,
    "TLE_LINE1": "1 59579U 24076R   25315.06154660  .00001674  00000+0  70366-4 0  9991",
    "TLE_LINE2": "2 59579  43.0043 318.6352 0000616 278.0069  82.0713 15.27571475 88364",
    "COMMENT": "Grouped by shell and plane from TLE"
  },
  {
    "OBJECT_NAME": "STARLINK-31668",
    "OBJECT_ID": "24076S",
    "EPOCH": "2025-11-11T07:28:35.728896",
    "MEAN_MOTION": 15.27606206,
    "ECCENTRICITY": 0.0001371,
    "INCLINATION": 43.0036,
    "RA_OF_ASC_NODE": 317.0749,
    "ARG_OF_PERICENTER": 267.3479,
    "MEAN_ANOMALY": 92.7216,
    "EPHEMERIS_TYPE": 0,
    "CLASSIFICATION_TYPE": "U",
    "NORAD_CAT_ID": 59580,
    "ELEMENT_SET_NO": 999,
    "REV_AT_EPOCH": 8840,
    "BSTAR": 0.0007748000000000001,
    "MEAN_MOTION_DOT": 0.00021137,
    "MEAN_MOTION_DDOT": 0.0,
    "TLE_LINE1": "1 59580U 24076S   25315.31152464  .00021137  00000+0  77480-3 0  9990",
    "TLE_LINE2": "2 59580  43.0036 317.0749 0001371 267.3479  92.7216 15.27606206 88408",
    "COMMENT": "Grouped by shell and plane from TLE"
  }
]